{
  "norad_id": 66522,
  "name": "STARLINK-35946",
  "history": [
    {
      "epoch": "2026-03-28T14:34:52.645728",
      "apogee_km": 483.716342125711,
      "perigee_km": 482.2974575672224,
      "latitude_deg": 30.685434836153618,
      "longitude_deg": 170.52516192011535,
      "semi_major_axis_km": 6861.143899846466,
      "eccentricity": 0.0001034,
      "inclination_deg": 43.0021,
      "raan_deg": 171.3571,
      "arg_perigee_deg": 273.6404,
      "mean_anomaly_deg": 86.433,
      "mean_motion_rev_day": 15.27594092
    }
  ]
}