{"fetched_at":"2026-03-29T02:12:04Z","count":15717,"tles":[{"name":"STARLINK-35946","line1":"1 66522U 25265G   26087.60755378  .00012516  00000+0  46337-3 0  9995","line2":"2 66522  43.0021 171.3571 0001034 273.6404  86.4330 15.27594092 20002","category":"Starlink"}]}